KUZGTU 1 (RS47S)        
1 57217U 23091AV  26163.25920279  .00013765  00000+0  47891-3 0  9994
2 57217  97.5074 227.6890 0012351 113.1915 247.0627 15.29751479163629
SONATE-2                
1 59112U 24043Q   26162.93769449  .00035538  00000+0  46836-3 0  9992
2 59112  97.5519 313.0138 0006785 213.3126 146.7703 15.58325832127076
MESAT1                  
1 60209U 24125G   26163.11235142  .00051467  00000+0  57300-3 0  9998
2 60209  97.2303  20.4818 0009017 223.0397 137.0157 15.62655675108774
OOV-CUBE (TUBSAT-30)    
1 60240U 24128F   26162.59923854  .00001977  00000+0  15980-3 0  9990
2 60240  61.9950 245.0577 0045327 132.4986 227.9949 15.02751187105272
COLIBRI-S (RS67S)       
1 61746U 24199M   26163.27717862  .00022898  00000+0  44622-3 0  9996
2 61746  97.3007  37.0879 0006290 302.7927  57.2717 15.47525018136651
HORS 3 (RS81S)          
1 61753U 24199U   26163.26257668  .00039249  00000+0  59260-3 0  9998
2 61753  97.2992  39.0069 0003842 308.7583  51.3328 15.54637174136791
HORS 4 (RS82S)          
1 61754U 24199V   26163.23784581  .00050649  00000+0  64396-3 0  9998
2 61754  97.2939  40.1516 0002957 292.4759  67.6184 15.59229398136872
ARCTICSAT 1 (RS74S)     
1 61762U 24199AD  26163.25469140  .02425194  23718-5  12428-2 0  9998
2 61762  97.2827  47.2472 0010089 213.8791 146.1855 16.20384590137339
SIT-2086                
1 61764U 24199AF  26163.23483677  .00037081  00000+0  59954-3 0  9990
2 61764  97.2948  39.4724 0004326 278.4874  81.5889 15.52749824133664
HYPERVIEW 1G (RS66S)    
1 61772U 24199AP  26163.23464103  .00145527  00000+0  98644-3 0  9996
2 61772  97.2889  42.7085 0002694 246.8852 113.2129 15.74557070133894
ALTAIR (RS65S)          
1 61779U 24199AW  26163.29425537  .00011448  00000+0  31838-3 0  9993
2 61779  97.3044  32.6781 0011565 330.8927  29.1671 15.36938480136368
ASRTU-1 (AO-123)        
1 61781U 24199AY  26163.27788434  .00008043  00000+0  23408-3 0  9993
2 61781  97.3014  31.9935 0012770 333.5097  26.5493 15.35607275133171
SAMSAT-IONOSPHERE (RS7*)
1 61784U 24199BB  26163.24058294  .00048053  00000+0  65906-3 0  9991
2 61784  97.2961  39.0134 0005968 302.8745  57.1936 15.57198850136795
RTU MIREA 1 (RS51S)     
1 61785U 24199BC  26163.27581242  .00058614  00000+0  70735-3 0  9999
2 61785  97.2951  39.8563 0005541 294.9444  65.1237 15.60560348133703
TEVEL2-4                
1 63213U 25052D   26163.22634011  .00019646  00000+0  59033-3 0  9994
2 63213  97.3917  59.6110 0004731 112.7549 247.4195 15.34441293 69350
TEVEL2-5                
1 63214U 25052E   26163.18106670  .00020078  00000+0  60654-3 0  9997
2 63214  97.3921  59.5143 0004629 114.2395 245.9332 15.34269187 69348
TEVEL2-6                
1 63215U 25052F   26163.19328240  .00020179  00000+0  61028-3 0  9996
2 63215  97.3921  59.5115 0004505 113.2672 246.9046 15.34232330 69341
TEVEL2-1                
1 63217U 25052H   26162.95960718  .00016082  00000+0  49545-3 0  9991
2 63217  97.3891  58.9077 0004509 123.4340 236.7334 15.33693147 69295
TEVEL2-3                
1 63218U 25052J   26163.21540340  .00019135  00000+0  58756-3 0  9993
2 63218  97.3892  59.1848 0004498 123.1530 237.0145 15.33760310 69337
TEVEL2-2                
1 63219U 25052K   26162.95994952  .00016262  00000+0  50083-3 0  9999
2 63219  97.3890  58.9106 0004449 123.8478 236.3189 15.33701780 69295
TEVEL2-9                
1 63237U 25052AD  26163.19195162  .00017823  00000+0  58280-3 0  9993
2 63237  97.3947  58.5267 0007288 144.2630 215.9100 15.31748226 69260
TEVEL2-7                
1 63238U 25052AE  26162.64384617  .00015266  00000+0  50453-3 0  9991
2 63238  97.3956  57.8996 0007384 146.6025 213.5683 15.31438086 69173
TEVEL2-8                
1 63239U 25052AF  26163.17476619  .00016802  00000+0  55488-3 0  9995
2 63239  97.3951  58.4063 0007475 146.0802 214.0919 15.31439720 69252
INNOSAT 16 (RS92S7)     
1 64878U 25155C   26163.27903384  .00005707  00000+0  22857-3 0  9990
2 64878  97.4555 130.4224 0009952 192.7820 167.3167 15.25406125 79929
GEOSCAN 6 (RS92S6)      
1 64879U 25155D   26163.27679807  .00010336  00000+0  35748-3 0  9998
2 64879  97.4548 131.8097 0007693 178.6375 181.4887 15.30062191 80018
GEOSCAN 1 (RS92S1)      
1 64880U 25155E   26163.28114487  .00011411  00000+0  38727-3 0  9994
2 64880  97.4543 131.9577 0007646 178.2636 181.8633 15.30649601 80024
239ALFEROV (RS61S)      
1 64881U 25155F   26163.25775201  .00015541  00000+0  49208-3 0  9993
2 64881  97.4543 132.4792 0007347 174.9408 185.1909 15.32811361 80050
GEOSCAN 2 (RS92S2)      
1 64890U 25155Q   26163.27569729  .00011283  00000+0  37978-3 0  9991
2 64890  97.4541 132.1029 0007518 164.6876 195.4594 15.30920693 80032
GEOSCAN 5 (RS92S5)      
1 64891U 25155R   26163.24779847  .00015022  00000+0  47117-3 0  9994
2 64891  97.4536 132.6048 0006045 178.2453 181.8812 15.33129400 80064
GEOSCAN 4 (RS92S4)      
1 64892U 25155S   26163.23248241  .00015165  00000+0  47339-3 0  9997
2 64892  97.4539 132.6364 0006089 178.2585 181.8680 15.33280272 80061
