OBJECT_NAME,OBJECT_ID,EPOCH,MEAN_MOTION,ECCENTRICITY,INCLINATION,RA_OF_ASC_NODE,ARG_OF_PERICENTER,MEAN_ANOMALY,EPHEMERIS_TYPE,CLASSIFICATION_TYPE,NORAD_CAT_ID,ELEMENT_SET_NO,REV_AT_EPOCH,BSTAR,MEAN_MOTION_DOT,MEAN_MOTION_DDOT
KUZGTU 1 (RS47S),2023-091AV,2026-06-12T06:13:15.121056,15.29751479,.00123519,97.5074,227.6890,113.1915,247.0627,0,U,57217,999,16362,.47891344E-3,.13765E-3,0
SONATE-2,2024-043Q,2026-06-11T22:30:16.803936,15.58325832,.0006785,97.5519,313.0138,213.3126,146.7703,0,U,59112,999,12707,.46836077E-3,.35538E-3,0
MESAT1,2024-125G,2026-06-12T02:41:47.162688,15.62655675,.00090174,97.2303,20.4818,223.0397,137.0157,0,U,60209,999,10877,.5729964E-3,.51467E-3,0
OOV-CUBE (TUBSAT-30),2024-128F,2026-06-11T14:22:54.209856,15.02751187,.0045327,61.9950,245.0577,132.4986,227.9949,0,U,60240,999,10527,.1598E-3,.1977E-4,0
COLIBRI-S (RS67S),2024-199M,2026-06-12T06:39:08.232768,15.47525018,.000629,97.3007,37.0879,302.7927,57.2717,0,U,61746,999,13665,.44622136E-3,.22898E-3,0
HORS 3 (RS81S),2024-199U,2026-06-12T06:18:06.625152,15.54637174,.00038426,97.2992,39.0069,308.7583,51.3328,0,U,61753,999,13679,.59259573E-3,.39249E-3,0
HORS 4 (RS82S),2024-199V,2026-06-12T05:42:29.877984,15.59229398,.00029573,97.2939,40.1516,292.4759,67.6184,0,U,61754,999,13687,.64396246E-3,.50649E-3,0
ARCTICSAT 1 (RS74S),2024-199AD,2026-06-12T06:06:45.336960,16.20384590,.00100892,97.2827,47.2472,213.8791,146.1855,0,U,61762,999,13733,.12428495E-2,.2425194E-1,.2371761E-5
SIT-2086,2024-199AF,2026-06-12T05:38:09.896928,15.52749824,.00043261,97.2948,39.4724,278.4874,81.5889,0,U,61764,999,13366,.59953724E-3,.37081E-3,0
HYPERVIEW 1G (RS66S),2024-199AP,2026-06-12T05:37:52.984992,15.74557070,.00026944,97.2889,42.7085,246.8852,113.2129,0,U,61772,999,13389,.98644436E-3,.145527E-2,0
ALTAIR (RS65S),2024-199AW,2026-06-12T07:03:43.663968,15.36938480,.00115652,97.3044,32.6781,330.8927,29.1671,0,U,61779,999,13636,.31838328E-3,.11448E-3,0
ASRTU-1 (AO-123),2024-199AY,2026-06-12T06:40:09.206976,15.35607275,.00127705,97.3014,31.9935,333.5097,26.5493,0,U,61781,999,13317,.23407707E-3,.8043E-4,0
SAMSAT-IONOSPHERE (RS75S),2024-199BB,2026-06-12T05:46:26.366016,15.57198850,.00059682,97.2961,39.0134,302.8745,57.1936,0,U,61784,999,13679,.65905573E-3,.48053E-3,0
RTU MIREA 1 (RS51S),2024-199BC,2026-06-12T06:37:10.193088,15.60560348,.00055412,97.2951,39.8563,294.9444,65.1237,0,U,61785,999,13370,.70735248E-3,.58614E-3,0
TEVEL2-4,2025-052D,2026-06-12T05:25:55.785504,15.34441293,.00047313,97.3917,59.6110,112.7549,247.4195,0,U,63213,999,6935,.59032813E-3,.19646E-3,0
TEVEL2-5,2025-052E,2026-06-12T04:20:44.162880,15.34269187,.00046298,97.3921,59.5143,114.2395,245.9332,0,U,63214,999,6934,.60653612E-3,.20078E-3,0
TEVEL2-6,2025-052F,2026-06-12T04:38:19.599360,15.34232330,.00045055,97.3921,59.5115,113.2672,246.9046,0,U,63215,999,6934,.61027656E-3,.20179E-3,0
TEVEL2-1,2025-052H,2026-06-11T23:01:50.060352,15.33693147,.00045093,97.3891,58.9077,123.4340,236.7334,0,U,63217,999,6929,.49545202E-3,.16082E-3,0
TEVEL2-3,2025-052J,2026-06-12T05:10:10.853760,15.33760310,.00044986,97.3892,59.1848,123.1530,237.0145,0,U,63218,999,6933,.58756477E-3,.19135E-3,0
TEVEL2-2,2025-052K,2026-06-11T23:02:19.638528,15.33701780,.00044495,97.3890,58.9106,123.8478,236.3189,0,U,63219,999,6929,.50082788E-3,.16262E-3,0
TEVEL2-9,2025-052AD,2026-06-12T04:36:24.619968,15.31748226,.00072884,97.3947,58.5267,144.2630,215.9100,0,U,63237,999,6926,.58279521E-3,.17823E-3,0
TEVEL2-7,2025-052AE,2026-06-11T15:27:08.309088,15.31438086,.0007384,97.3956,57.8996,146.6025,213.5683,0,U,63238,999,6917,.50452758E-3,.15266E-3,0
TEVEL2-8,2025-052AF,2026-06-12T04:11:39.798816,15.31439720,.00074755,97.3951,58.4063,146.0802,214.0919,0,U,63239,999,6925,.55488137E-3,.16802E-3,0
INNOSAT 16 (RS92S7),2025-155C,2026-06-12T06:41:48.523776,15.25406125,.00099529,97.4555,130.4224,192.7820,167.3167,0,U,64878,999,7992,.22856739E-3,.5707E-4,0
GEOSCAN 6 (RS92S6),2025-155D,2026-06-12T06:38:35.353248,15.30062191,.00076936,97.4548,131.8097,178.6375,181.4887,0,U,64879,999,8001,.35747718E-3,.10336E-3,0
GEOSCAN 1 (RS92S1),2025-155E,2026-06-12T06:44:50.916768,15.30649601,.00076463,97.4543,131.9577,178.2636,181.8633,0,U,64880,999,8002,.38727079E-3,.11411E-3,0
239ALFEROV (RS61S),2025-155F,2026-06-12T06:11:09.773664,15.32811361,.00073472,97.4543,132.4792,174.9408,185.1909,0,U,64881,999,8005,.492081E-3,.15541E-3,0
GEOSCAN 2 (RS92S2),2025-155Q,2026-06-12T06:37:00.245856,15.30920693,.00075182,97.4541,132.1029,164.6876,195.4594,0,U,64890,999,8003,.37978111E-3,.11283E-3,0
GEOSCAN 5 (RS92S5),2025-155R,2026-06-12T05:56:49.787808,15.33129400,.00060456,97.4536,132.6048,178.2453,181.8812,0,U,64891,999,8006,.47117202E-3,.15022E-3,0
GEOSCAN 4 (RS92S4),2025-155S,2026-06-12T05:34:46.480224,15.33280272,.00060891,97.4539,132.6364,178.2585,181.8680,0,U,64892,999,8006,.47338944E-3,.15165E-3,0
